STARLINK-5497           
1 55629U 23021B   26068.81099528  .00003107  00000+0  26807-3 0  9995
2 55629  70.0001 204.2603 0001852 277.3210  82.7738 14.98328534168313
STRIX-5                 
1 65971U 25229A   26068.48916036  .00006129  00000+0  44900-3 0  9994
2 65971  41.9265 119.8574 0036941 120.2079 240.2413 15.03509399 21964
