[{"OBJECT_NAME":"STARLINK-5497","OBJECT_ID":"2023-021B","EPOCH":"2026-03-09T19:27:49.992192","MEAN_MOTION":14.98328534,"ECCENTRICITY":0.00018526,"INCLINATION":70.0001,"RA_OF_ASC_NODE":204.2603,"ARG_OF_PERICENTER":277.321,"MEAN_ANOMALY":82.7738,"EPHEMERIS_TYPE":0,"CLASSIFICATION_TYPE":"U","NORAD_CAT_ID":55629,"ELEMENT_SET_NO":999,"REV_AT_EPOCH":16831,"BSTAR":0.0002680748,"MEAN_MOTION_DOT":3.107e-5,"MEAN_MOTION_DDOT":0},{"OBJECT_NAME":"STRIX-5","OBJECT_ID":"2025-229A","EPOCH":"2026-03-09T11:44:23.455104","MEAN_MOTION":15.03509399,"ECCENTRICITY":0.00369417,"INCLINATION":41.9265,"RA_OF_ASC_NODE":119.8574,"ARG_OF_PERICENTER":120.2079,"MEAN_ANOMALY":240.2413,"EPHEMERIS_TYPE":0,"CLASSIFICATION_TYPE":"U","NORAD_CAT_ID":65971,"ELEMENT_SET_NO":999,"REV_AT_EPOCH":2196,"BSTAR":0.00044899589,"MEAN_MOTION_DOT":6.129e-5,"MEAN_MOTION_DDOT":0}]
